GLOBALSTAR M023         
1 25621U 99004A   25287.13464519 -.00000100  00000+0  21625-4 0  9996
2 25621  52.0118  51.2388 0010285  33.6925 138.6254 12.62507976230757
GLOBALSTAR M040         
1 25622U 99004B   25287.07673365 -.00000087  00000+0  95644-4 0  9997
2 25622  51.9929  55.7457 0000093 358.7599 172.5637 12.62019015230266
GLOBALSTAR M036         
1 25623U 99004C   25287.33061257 -.00000027  00000+0  80652-3 0  9994
2 25623  51.9964 286.2830 0010573 279.3001 186.1708 11.86611386193129
GLOBALSTAR M038         
1 25624U 99004D   25287.16917618 -.00000081  00000+0  11957-3 0  9999
2 25624  51.9958  88.9124 0001006 326.7965 205.1437 12.32533726217045
GLOBALSTAR M022         
1 25649U 99012A   25287.27512942 -.00000028  00000+0  71260-3 0  9992
2 25649  52.0059 327.1666 0002762  53.9369  24.2732 12.02504030190706
GLOBALSTAR M041         
1 25650U 99012B   25287.16002018 -.00000123  00000+0 -48950-3 0  9997
2 25650  52.0011 212.5560 0000997 171.9184 188.1668 11.96681927192523
GLOBALSTAR M046         
1 25651U 99012C   25287.26234968  .00000064  00000+0  16877-2 0  9994
2 25651  52.0047 272.9877 0002077 123.1937 250.6999 12.09413665198075
GLOBALSTAR M037         
1 25652U 99012D   25287.11320707 -.00000076  00000+0  15630-3 0  9997
2 25652  51.9994 181.8828 0002784  83.1719  64.5434 12.62452580226297
